CALSPHERE 1             
1 00900U 64063C   22077.92212392  .00000453  00000+0  47421-3 0  9998
2 00900  90.1732  39.2474 0025474 298.2009 120.8350 13.73711443858233
CALSPHERE 2             
1 00902U 64063E   22077.90726309  .00000027  00000+0  26538-4 0  9990
2 00902  90.1857  42.2594 0020055  54.2922 330.5022 13.52708932646534
LCS 1                   
1 01361U 65034C   22077.84247627  .00000000  00000+0 -10579-2 0  9991
2 01361  32.1389 260.4396 0013744 276.5020  83.3913  9.89301192 56257
TEMPSAT 1               
1 01512U 65065E   22077.90553917  .00000016  00000+0  15733-4 0  9997
2 01512  89.9090 219.4125 0068169 285.1119 194.3134 13.33446607753307
CALSPHERE 4A            
1 01520U 65065H   22077.87065689  .00000090  00000+0  15514-3 0  9994
2 01520  89.9972 130.2169 0070672 157.3855 265.4042 13.35874577755563
OPS 5712 (P/L 160)      
1 02826U 67053A   22077.77558944  .00001566  00000+0  41872-3 0  9998
2 02826  69.9271 141.7690 0003950 152.6496 207.4846 14.50131459839589
LES-5                   
1 02866U 67066E   22077.80208767 -.00000055  00000+0  00000+0 0  9992
2 02866   1.4868 249.4675 0054775  34.6299 176.8964  1.09425034114059
SURCAL 159              
1 02872U 67053F   22077.47082747  .00000060  00000+0  78993-4 0  9992
2 02872  69.9726 100.0649 0008013 318.0518  41.9975 13.98887795793142
OPS 5712 (P/L 153)      
1 02874U 67053H   22077.74042498 -.00000007  00000+0  33816-4 0  9990
2 02874  69.9740 199.4419 0005383  32.0443 328.0989 13.96392344790166
SURCAL 150B             
1 02909U 67053J   22077.70577895  .00002334  00000+0  46503-3 0  9999
2 02909  69.9474 135.7558 0004399 203.4810 156.6130 14.63284442850337
RIGIDSPHERE 2 (LCS 4)   
1 05398U 71067E   22077.91983840  .00000473  00000+0  15937-3 0  9997
2 05398  87.6220  47.9448 0062011 325.9283  33.7939 14.34139551651282
OSCAR 7 (AO-7)          
1 07530U 74089B   22077.92466998 -.00000049  00000+0 -21089-4 0  9992
2 07530 101.8964  57.5382 0012001 214.3932 202.6416 12.53653539166123
STARLETTE               
1 07646U 75010A   22077.88549787 -.00000131  00000+0  91462-5 0  9992
2 07646  49.8233 107.6766 0205706 338.3917  20.8390 13.82311250379952
LAGEOS 1                
1 08820U 76039A   22077.62950965 -.00000002  00000+0  00000+0 0  9994
2 08820 109.8627   7.8781 0045080 274.2097 224.0099  6.38665051814056
PHASE 3B (AO-10)        
1 14129U 83058B   22077.44825461 -.00000294  00000+0  00000+0 0  9997
2 14129  26.4020 111.0277 5984783  57.6692 346.9220  2.05870028263538
UOSAT 2 (UO-11)         
1 14781U 84021B   22077.93928282  .00000620  00000+0  81451-4 0  9997
2 14781  97.6127  69.5366 0006891 257.3331 102.7113 14.83492945 26628
AJISAI (EGS)            
1 16908U 86061A   22077.93933972 -.00000114  00000+0 -11605-3 0  9991
2 16908  50.0074 237.3576 0011361 190.9560 350.4118 12.44495812287220
TDRS 3                  
1 19548U 88091B   22077.35081112 -.00000294  00000+0  00000+0 0  9996
2 19548  13.7801 352.0343 0039846 333.5309 287.8350  1.00273339109826
COSMOS 1989 (ETALON 1)  
1 19751U 89001C   22077.84150208  .00000069  00000+0  00000+0 0  9990
2 19751  64.2805 125.5033 0023660 213.0246 190.0399  2.13156310258305
COSMOS 2024 (ETALON 2)  
1 20026U 89039C   22077.72703553 -.00000057  00000+0  00000+0 0  9990
2 20026  65.5481   3.4580 0018370 219.1574 350.7364  2.13204251255425
FLTSATCOM 8 (USA 46)    
1 20253U 89077A   22075.89076880 -.00000074  00000+0  00000+0 0  9995
2 20253  12.8858   0.8524 0003751  60.8042 145.3715  1.00274865245034
LUSAT (LO-19)           
1 20442U 90005G   22077.89220823  .00000070  00000+0  42166-4 0  9997
2 20442  98.7831  41.4246 0012856  76.0159 284.2453 14.33030837680139
HST                     
1 20580U 90037B   22077.38140368  .00001902  00000+0  10278-3 0  9997
2 20580  28.4707  52.0679 0002782 133.4012 357.0796 15.10141767552436
SKYNET 4C               
1 20776U 90079A   22077.84716900  .00000131  00000+0  00000+0 0  9993
2 20776  13.8319   0.7397 0003555 353.0177 160.9813  1.00274263115335
TDRS 5                  
1 21639U 91054B   22077.58608910  .00000091  00000+0  00000+0 0  9993
2 21639  14.2445   5.3635 0028026 356.9318 217.2536  1.00277961112157
GEOTAIL                 
1 22049U 92044A   22082.29682516 -.00000889  00000+0  00000+0 0  9993
2 22049  44.4265  38.4181 4972018 195.2496 356.7865  0.19233090 12792
LAGEOS 2                
1 22195U 92070B   22073.63283903 -.00000009  00000+0  00000+0 0  9993
2 22195  52.6456 169.7300 0137748 227.3690 259.8940  6.47293956694719
TDRS 6                  
1 22314U 93003B   22077.91348049 -.00000289  00000+0  00000+0 0  9991
2 22314  14.1255   8.5942 0008302  93.5440 357.0874  1.00279761106855
SCD 1                   
1 22490U 93009B   22077.39588097  .00000343  00000+0  44677-4 0  9996
2 22490  24.9705  56.8075 0042678 294.5472 197.0433 14.44654721536376
UFO 2 (USA 95)          
1 22787U 93056A   22077.77998399  .00000131  00000+0  00000+0 0  9991
2 22787  11.4457  11.6362 0004068 349.4057 124.8606  1.00266935102999
